     3.02           N: GNSS NAV DATA    R: GLONASS          RINEX VERSION / TYPE
cnvtToRINEX 2.29.0  REGINA              06-Jan-16 00:40 UTC PGM / RUN BY / DATE 
----------------------------------------------------------- COMMENT             
GLUT    0.414438545704D-07 0.000000000000D+00 503808 1878   TIME SYSTEM CORR    
    17                                                      LEAP SECONDS        
                                                            END OF HEADER       
R21 2016 01 05 21 45 00 0.455006957054D-04 0.181898940355D-11 0.774000000000D+05
     0.191179262695D+05 0.223283004761D+01 0.931322574615D-09 0.000000000000D+00
    -0.394084667969D+04 0.314956665039D+00 0.000000000000D+00 0.400000000000D+01
    -0.164350595703D+05 0.251840686798D+01 0.279396772385D-08 0.000000000000D+00
R22 2016 01 05 21 45 00 0.187365338206D-03 0.909494701773D-12 0.774000000000D+05
     0.178280175781D+04 0.310832023621D+01-0.931322574615D-09 0.000000000000D+00
    -0.105560185547D+05 0.637340545654D+00 0.000000000000D+00-0.300000000000D+01
    -0.231482480469D+05-0.392913818359D-01 0.186264514923D-08 0.000000000000D+00
R23 2016 01 05 21 45 00-0.670924782753D-04-0.363797880709D-11 0.774000000000D+05
    -0.170907548828D+05 0.205971050262D+01-0.372529029846D-08 0.000000000000D+00
    -0.107945058594D+05 0.567436218262D+00 0.931322574615D-09 0.300000000000D+01
    -0.155596611328D+05-0.265697669983D+01 0.000000000000D+00 0.000000000000D+00
R13 2016 01 05 21 45 00 0.117514282465D-04 0.000000000000D+00 0.785700000000D+05
    -0.127222607422D+05-0.102251529694D+01-0.372529029846D-08 0.000000000000D+00
    -0.748174609375D+04-0.266145229340D+01 0.000000000000D+00-0.200000000000D+01
    -0.208166777344D+05 0.158227920532D+01 0.000000000000D+00 0.000000000000D+00
R 7 2016 01 05 22 15 00-0.517349690199D-05 0.000000000000D+00 0.792000000000D+05
     0.167042329102D+05-0.932706832886D+00 0.186264514923D-08 0.000000000000D+00
    -0.159204726563D+05 0.116554355621D+01 0.000000000000D+00 0.500000000000D+01
    -0.108210556641D+05-0.314943790436D+01 0.186264514923D-08 0.000000000000D+00
R 8 2016 01 05 22 15 00-0.270316377282D-04 0.000000000000D+00 0.792000000000D+05
     0.109898325195D+05 0.346957206726D+00 0.279396772385D-08 0.000000000000D+00
    -0.221492094727D+05-0.803263664246D+00 0.000000000000D+00 0.600000000000D+01
     0.634146142578D+04-0.342862606049D+01 0.000000000000D+00 0.000000000000D+00
R12 2016 01 05 22 15 00 0.315262004733D-04 0.181898940355D-11 0.792000000000D+05
    -0.116844545898D+05-0.218626976013D+00 0.000000000000D+00 0.000000000000D+00
    -0.227581811523D+05 0.147342681885D-02 0.931322574615D-09-0.100000000000D+01
    -0.725808105469D+03 0.356710910797D+01-0.931322574615D-09 0.000000000000D+00
R22 2016 01 05 22 15 00 0.187367200851D-03 0.000000000000D+00 0.792000000000D+05
     0.738035888672D+04 0.305874061584D+01 0.000000000000D+00 0.000000000000D+00
    -0.983479736328D+04 0.162297248840D+00 0.000000000000D+00-0.300000000000D+01
    -0.223222543945D+05 0.951469421387D+00 0.186264514923D-08 0.000000000000D+00
R 6 2016 01 05 22 15 00 0.813882797956D-04 0.000000000000D+00 0.792000000000D+05
     0.131782910156D+05-0.165556907654D+01 0.000000000000D+00 0.000000000000D+00
    -0.887869628906D+03 0.248312377930D+01 0.000000000000D+00-0.400000000000D+01
    -0.218358315430D+05-0.110374736786D+01 0.279396772385D-08 0.000000000000D+00
R11 2016 01 05 22 15 00 0.213906168938D-04 0.000000000000D+00 0.792000000000D+05
    -0.154057324219D+04 0.863578796387D+00 0.186264514923D-08 0.000000000000D+00
    -0.196312412109D+05 0.204856395721D+01 0.931322574615D-09 0.000000000000D+00
     0.161657753906D+05 0.257825565338D+01-0.931322574615D-09 0.000000000000D+00
R21 2016 01 05 22 15 00 0.455044209957D-04 0.181898940355D-11 0.792000000000D+05
     0.225626767578D+05 0.155891227722D+01 0.186264514923D-08 0.000000000000D+00
    -0.373728076172D+04-0.603437423706D-01 0.000000000000D+00 0.400000000000D+01
    -0.113258232422D+05 0.312167549133D+01 0.279396772385D-08 0.000000000000D+00
R13 2016 01 05 22 15 00 0.117514282465D-04 0.000000000000D+00 0.792000000000D+05
    -0.147421152344D+05-0.118315792084D+01-0.279396772385D-08 0.000000000000D+00
    -0.117416083984D+05-0.204074668884D+01 0.931322574615D-09-0.200000000000D+01
    -0.172015527344D+05 0.240851306915D+01 0.000000000000D+00 0.000000000000D+00
R23 2016 01 05 22 15 00-0.670999288559D-04-0.363797880709D-11 0.792000000000D+05
    -0.127903935547D+05 0.268203926086D+01-0.279396772385D-08 0.000000000000D+00
    -0.999545849609D+04 0.288572311401D+00 0.931322574615D-09 0.300000000000D+01
    -0.196790463867D+05-0.189043331146D+01 0.000000000000D+00 0.000000000000D+00
R 1 2016 01 05 22 15 00-0.147064216435D-03 0.000000000000D+00 0.800400000000D+05
    -0.882023437500D+03 0.140828132629D+01 0.186264514923D-08 0.000000000000D+00
    -0.161753789063D+05-0.230207633972D+01 0.931322574615D-09 0.100000000000D+01
     0.197037949219D+05-0.182454395294D+01-0.931322574615D-09 0.000000000000D+00
R 8 2016 01 05 22 45 00-0.270316377282D-04 0.000000000000D+00 0.810000000000D+05
     0.111435859375D+05-0.144648551941D+00 0.279396772385D-08 0.000000000000D+00
    -0.229536894531D+05-0.643081665039D-01 0.000000000000D+00 0.600000000000D+01
     0.478613281250D+01-0.356649494171D+01 0.931322574615D-09 0.000000000000D+00
R 7 2016 01 05 22 45 00-0.517442822456D-05 0.000000000000D+00 0.810000000000D+05
     0.148720996094D+05-0.105926418304D+01 0.931322574615D-09 0.000000000000D+00
    -0.131279233398D+05 0.192711925507D+01 0.000000000000D+00 0.500000000000D+01
    -0.159971494141D+05-0.256430625916D+01 0.279396772385D-08 0.000000000000D+00
R22 2016 01 05 22 45 00 0.187369063497D-03 0.000000000000D+00 0.810000000000D+05
     0.126095673828D+05 0.270291423798D+01 0.000000000000D+00 0.000000000000D+00
    -0.994481982422D+04-0.268155097961D+00 0.000000000000D+00-0.300000000000D+01
    -0.197660556641D+05 0.187056541443D+01 0.279396772385D-08 0.000000000000D+00
R12 2016 01 05 22 45 00 0.315299257636D-04 0.181898940355D-11 0.810000000000D+05
    -0.116643671875D+05 0.273652076721D+00 0.000000000000D+00 0.000000000000D+00
    -0.220613686523D+05 0.747433662415D+00 0.931322574615D-09-0.100000000000D+01
     0.564059619141D+04 0.346115016937D+01-0.931322574615D-09 0.000000000000D+00
R21 2016 01 05 22 45 00 0.455072149634D-04 0.181898940355D-11 0.810000000000D+05
     0.246297031250D+05 0.718684196472D+00 0.279396772385D-08 0.000000000000D+00
    -0.403520947266D+04-0.232144355774D+00-0.931322574615D-09 0.400000000000D+01
    -0.534209375000D+04 0.348379325867D+01 0.186264514923D-08 0.000000000000D+00
R13 2016 01 05 22 45 00 0.117504969239D-04 0.000000000000D+00 0.810000000000D+05
    -0.168288012695D+05-0.109055519104D+01-0.186264514923D-08 0.000000000000D+00
    -0.147484570313D+05-0.128734111786D+01 0.186264514923D-08-0.200000000000D+01
    -0.122577973633D+05 0.304894828796D+01 0.000000000000D+00 0.000000000000D+00
R 6 2016 01 05 22 45 00 0.813901424408D-04 0.000000000000D+00 0.810000000000D+05
     0.104477988281D+05-0.134763336182D+01-0.931322574615D-09 0.000000000000D+00
     0.393223828125D+04 0.283201408386D+01 0.000000000000D+00-0.400000000000D+01
    -0.229542939453D+05-0.131037712097D+00 0.279396772385D-08 0.000000000000D+00
R23 2016 01 05 22 45 00-0.671073794365D-04-0.363797880709D-11 0.810000000000D+05
    -0.758968164063D+04 0.304855823517D+01-0.186264514923D-08 0.000000000000D+00
    -0.984506347656D+04-0.138412475586D+00 0.931322574615D-09 0.300000000000D+01
    -0.222774291992D+05-0.977948188782D+00 0.931322574615D-09 0.000000000000D+00
R11 2016 01 05 22 45 00 0.213906168938D-04 0.000000000000D+00 0.810000000000D+05
     0.555002441406D+03 0.146580791473D+01 0.279396772385D-08 0.000000000000D+00
    -0.156371655273D+05 0.234015560150D+01 0.000000000000D+00 0.000000000000D+00
     0.201195649414D+05 0.178641033173D+01-0.931322574615D-09 0.000000000000D+00
R 1 2016 01 05 22 45 00-0.147057697177D-03 0.000000000000D+00 0.810000000000D+05
     0.113217041016D+04 0.832335472107D+00 0.279396772385D-08 0.000000000000D+00
    -0.200756723633D+05-0.198442077637D+01 0.000000000000D+00 0.100000000000D+01
     0.157004536133D+05-0.259470367432D+01-0.931322574615D-09 0.000000000000D+00
R 8 2016 01 05 23 15 00-0.270316377282D-04 0.000000000000D+00 0.828000000000D+05
     0.106002939453D+05-0.418957710266D+00 0.186264514923D-08 0.000000000000D+00
    -0.223165683594D+05 0.780885696411D+00 0.000000000000D+00 0.600000000000D+01
    -0.633215087891D+04-0.342880058289D+01 0.186264514923D-08 0.000000000000D+00
R 7 2016 01 05 23 15 00-0.517629086971D-05 0.000000000000D+00 0.828000000000D+05
     0.130417768555D+05-0.935801506042D+00 0.000000000000D+00 0.000000000000D+00
    -0.905319873047D+04 0.257194805145D+01 0.000000000000D+00 0.500000000000D+01
    -0.199328945313D+05-0.178026199341D+01 0.279396772385D-08 0.000000000000D+00
R22 2016 01 05 23 15 00 0.187369994819D-03 0.000000000000D+00 0.828000000000D+05
     0.169538579102D+05 0.208678340912D+01 0.931322574615D-09 0.000000000000D+00
    -0.107123139648D+05-0.553095817566D+00 0.000000000000D+00-0.300000000000D+01
    -0.156746254883D+05 0.264601230621D+01 0.279396772385D-08 0.000000000000D+00
R23 2016 01 05 23 15 00-0.671148300171D-04-0.363797880709D-11 0.828000000000D+05
    -0.199883056641D+04 0.311122989655D+01-0.931322574615D-09 0.000000000000D+00
    -0.105229409180D+05-0.613737106323D+00 0.931322574615D-09 0.300000000000D+01
    -0.231542856445D+05 0.996780395508D-02 0.186264514923D-08 0.000000000000D+00
